[{"OBJECT_NAME":"STARLINK-2746","OBJECT_ID":"2021-044AQ","EPOCH":"2025-08-24T08:34:45.011424","MEAN_MOTION":15.06388412,"ECCENTRICITY":9.414e-5,"INCLINATION":53.0542,"RA_OF_ASC_NODE":277.4772,"ARG_OF_PERICENTER":87.3489,"MEAN_ANOMALY":272.7608,"EPHEMERIS_TYPE":0,"CLASSIFICATION_TYPE":"U","NORAD_CAT_ID":48676,"ELEMENT_SET_NO":999,"REV_AT_EPOCH":23410,"BSTAR":2.8642248e-5,"MEAN_MOTION_DOT":1.45e-6,"MEAN_MOTION_DDOT":0},{"OBJECT_NAME":"STARLINK-2615","OBJECT_ID":"2021-044AS","EPOCH":"2025-08-24T09:59:39.984000","MEAN_MOTION":15.06391137,"ECCENTRICITY":0.00010436,"INCLINATION":53.0553,"RA_OF_ASC_NODE":277.2127,"ARG_OF_PERICENTER":83.278,"MEAN_ANOMALY":276.8328,"EPHEMERIS_TYPE":0,"CLASSIFICATION_TYPE":"U","NORAD_CAT_ID":48678,"ELEMENT_SET_NO":999,"REV_AT_EPOCH":23411,"BSTAR":3.5043222e-5,"MEAN_MOTION_DOT":2.41e-6,"MEAN_MOTION_DDOT":0},{"OBJECT_NAME":"STARLINK-2648","OBJECT_ID":"2021-044AT","EPOCH":"2025-08-24T08:18:50.158368","MEAN_MOTION":15.06383333,"ECCENTRICITY":0.0001173,"INCLINATION":53.0542,"RA_OF_ASC_NODE":277.5299,"ARG_OF_PERICENTER":73.124,"MEAN_ANOMALY":286.9877,"EPHEMERIS_TYPE":0,"CLASSIFICATION_TYPE":"U","NORAD_CAT_ID":48679,"ELEMENT_SET_NO":999,"REV_AT_EPOCH":23410,"BSTAR":0.00017636019,"MEAN_MOTION_DOT":2.345e-5,"MEAN_MOTION_DDOT":0},{"OBJECT_NAME":"STARLINK-2725","OBJECT_ID":"2021-044AV","EPOCH":"2025-08-24T09:47:45.905280","MEAN_MOTION":15.06389511,"ECCENTRICITY":8.88e-5,"INCLINATION":53.0541,"RA_OF_ASC_NODE":247.4916,"ARG_OF_PERICENTER":78.0325,"MEAN_ANOMALY":282.0763,"EPHEMERIS_TYPE":0,"CLASSIFICATION_TYPE":"U","NORAD_CAT_ID":48681,"ELEMENT_SET_NO":999,"REV_AT_EPOCH":23452,"BSTAR":3.7890847e-5,"MEAN_MOTION_DOT":2.83e-6,"MEAN_MOTION_DDOT":0},{"OBJECT_NAME":"STARLINK-2743","OBJECT_ID":"2021-044AW","EPOCH":"2025-08-24T04:57:10.065600","MEAN_MOTION":15.06446519,"ECCENTRICITY":0.00015388,"INCLINATION":53.0555,"RA_OF_ASC_NODE":238.3157,"ARG_OF_PERICENTER":82.8337,"MEAN_ANOMALY":277.2827,"EPHEMERIS_TYPE":0,"CLASSIFICATION_TYPE":"U","NORAD_CAT_ID":48682,"ELEMENT_SET_NO":999,"REV_AT_EPOCH":23463,"BSTAR":0.001447816,"MEAN_MOTION_DOT":0.00021377,"MEAN_MOTION_DDOT":0},{"OBJECT_NAME":"STARLINK-2756","OBJECT_ID":"2021-044AX","EPOCH":"2025-08-24T05:28:58.658880","MEAN_MOTION":15.0640106,"ECCENTRICITY":0.00013928,"INCLINATION":53.0543,"RA_OF_ASC_NODE":238.0672,"ARG_OF_PERICENTER":88.3719,"MEAN_ANOMALY":271.743,"EPHEMERIS_TYPE":0,"CLASSIFICATION_TYPE":"U","NORAD_CAT_ID":48683,"ELEMENT_SET_NO":999,"REV_AT_EPOCH":23464,"BSTAR":7.944302e-5,"MEAN_MOTION_DOT":9.02e-6,"MEAN_MOTION_DDOT":0},{"OBJECT_NAME":"STARLINK-2741","OBJECT_ID":"2021-044AY","EPOCH":"2025-08-24T07:37:04.590336","MEAN_MOTION":15.06394348,"ECCENTRICITY":0.00011246,"INCLINATION":53.0542,"RA_OF_ASC_NODE":253.014,"ARG_OF_PERICENTER":75.1586,"MEAN_ANOMALY":284.9527,"EPHEMERIS_TYPE":0,"CLASSIFICATION_TYPE":"U","NORAD_CAT_ID":48684,"ELEMENT_SET_NO":999,"REV_AT_EPOCH":23444,"BSTAR":4.1753424e-5,"MEAN_MOTION_DOT":3.41e-6,"MEAN_MOTION_DDOT":0},{"OBJECT_NAME":"STARLINK-2751","OBJECT_ID":"2021-044AZ","EPOCH":"2025-08-24T04:46:31.116000","MEAN_MOTION":15.0639349,"ECCENTRICITY":0.00013486,"INCLINATION":53.0542,"RA_OF_ASC_NODE":238.237,"ARG_OF_PERICENTER":71.9315,"MEAN_ANOMALY":288.1821,"EPHEMERIS_TYPE":0,"CLASSIFICATION_TYPE":"U","NORAD_CAT_ID":48685,"ELEMENT_SET_NO":999,"REV_AT_EPOCH":23464,"BSTAR":5.481738e-6,"MEAN_MOTION_DOT":-2.0e-6,"MEAN_MOTION_DDOT":0},{"OBJECT_NAME":"STARLINK-2629","OBJECT_ID":"2021-044BA","EPOCH":"2025-08-24T07:49:00.804000","MEAN_MOTION":15.06392214,"ECCENTRICITY":4.089e-5,"INCLINATION":53.0543,"RA_OF_ASC_NODE":242.9009,"ARG_OF_PERICENTER":75.5262,"MEAN_ANOMALY":284.5773,"EPHEMERIS_TYPE":0,"CLASSIFICATION_TYPE":"U","NORAD_CAT_ID":48686,"ELEMENT_SET_NO":999,"REV_AT_EPOCH":23458,"BSTAR":5.645326e-5,"MEAN_MOTION_DOT":5.6e-6,"MEAN_MOTION_DDOT":0},{"OBJECT_NAME":"STARLINK-2627","OBJECT_ID":"2021-044BB","EPOCH":"2025-08-24T07:13:09.302304","MEAN_MOTION":15.06388055,"ECCENTRICITY":0.00011681,"INCLINATION":53.0541,"RA_OF_ASC_NODE":232.7334,"ARG_OF_PERICENTER":72.8938,"MEAN_ANOMALY":287.2179,"EPHEMERIS_TYPE":0,"CLASSIFICATION_TYPE":"U","NORAD_CAT_ID":48687,"ELEMENT_SET_NO":999,"REV_AT_EPOCH":23472,"BSTAR":0.00021035859,"MEAN_MOTION_DOT":2.852e-5,"MEAN_MOTION_DDOT":0},{"OBJECT_NAME":"STARLINK-2742","OBJECT_ID":"2021-044BC","EPOCH":"2025-08-24T08:53:58.898112","MEAN_MOTION":15.06388503,"ECCENTRICITY":0.0001137,"INCLINATION":53.0539,"RA_OF_ASC_NODE":232.4178,"ARG_OF_PERICENTER":82.5871,"MEAN_ANOMALY":277.5247,"EPHEMERIS_TYPE":0,"CLASSIFICATION_TYPE":"U","NORAD_CAT_ID":48688,"ELEMENT_SET_NO":999,"REV_AT_EPOCH":23473,"BSTAR":2.7383019e-5,"MEAN_MOTION_DOT":1.26e-6,"MEAN_MOTION_DDOT":0},{"OBJECT_NAME":"STARLINK-2740","OBJECT_ID":"2021-044BE","EPOCH":"2025-08-24T07:35:01.718304","MEAN_MOTION":15.06403535,"ECCENTRICITY":0.00010058,"INCLINATION":53.054,"RA_OF_ASC_NODE":247.6644,"ARG_OF_PERICENTER":90.5712,"MEAN_ANOMALY":269.5392,"EPHEMERIS_TYPE":0,"CLASSIFICATION_TYPE":"U","NORAD_CAT_ID":48690,"ELEMENT_SET_NO":999,"REV_AT_EPOCH":23451,"BSTAR":6.0932533e-5,"MEAN_MOTION_DOT":6.26e-6,"MEAN_MOTION_DDOT":0},{"OBJECT_NAME":"STARLINK-2750","OBJECT_ID":"2021-044BF","EPOCH":"2025-08-24T05:20:20.458464","MEAN_MOTION":15.06391802,"ECCENTRICITY":0.00013291,"INCLINATION":53.0539,"RA_OF_ASC_NODE":243.0822,"ARG_OF_PERICENTER":78.6239,"MEAN_ANOMALY":281.4899,"EPHEMERIS_TYPE":0,"CLASSIFICATION_TYPE":"U","NORAD_CAT_ID":48691,"ELEMENT_SET_NO":999,"REV_AT_EPOCH":23457,"BSTAR":5.375368e-6,"MEAN_MOTION_DOT":-2.01e-6,"MEAN_MOTION_DDOT":0},{"OBJECT_NAME":"STARLINK-2752","OBJECT_ID":"2021-044BG","EPOCH":"2025-08-24T08:10:12.763200","MEAN_MOTION":15.06391946,"ECCENTRICITY":0.00010693,"INCLINATION":53.054,"RA_OF_ASC_NODE":242.6791,"ARG_OF_PERICENTER":87.6868,"MEAN_ANOMALY":272.4243,"EPHEMERIS_TYPE":0,"CLASSIFICATION_TYPE":"U","NORAD_CAT_ID":48692,"ELEMENT_SET_NO":999,"REV_AT_EPOCH":23459,"BSTAR":4.9215318e-5,"MEAN_MOTION_DOT":4.52e-6,"MEAN_MOTION_DDOT":0},{"OBJECT_NAME":"STARLINK-2618","OBJECT_ID":"2021-044BH","EPOCH":"2025-08-24T09:56:58.335648","MEAN_MOTION":15.06387892,"ECCENTRICITY":0.00013129,"INCLINATION":53.0539,"RA_OF_ASC_NODE":247.2221,"ARG_OF_PERICENTER":77.5042,"MEAN_ANOMALY":282.6094,"EPHEMERIS_TYPE":0,"CLASSIFICATION_TYPE":"U","NORAD_CAT_ID":48693,"ELEMENT_SET_NO":999,"REV_AT_EPOCH":23453,"BSTAR":7.5278798e-5,"MEAN_MOTION_DOT":8.4e-6,"MEAN_MOTION_DDOT":0},{"OBJECT_NAME":"STARLINK-2748","OBJECT_ID":"2021-044BJ","EPOCH":"2025-08-24T07:35:39.009408","MEAN_MOTION":15.06394857,"ECCENTRICITY":0.00012831,"INCLINATION":53.054,"RA_OF_ASC_NODE":252.6504,"ARG_OF_PERICENTER":89.1639,"MEAN_ANOMALY":270.9497,"EPHEMERIS_TYPE":0,"CLASSIFICATION_TYPE":"U","NORAD_CAT_ID":48694,"ELEMENT_SET_NO":999,"REV_AT_EPOCH":23444,"BSTAR":3.8441311e-5,"MEAN_MOTION_DOT":2.91e-6,"MEAN_MOTION_DDOT":0}]
