STARLINK-2746           
1 48676U 21044AQ  25236.35746541  .00000145  00000+0  28642-4 0  9990
2 48676  53.0542 277.4772 0000941  87.3489 272.7608 15.06388412234101
STARLINK-2615           
1 48678U 21044AS  25236.41643500  .00000241  00000+0  35043-4 0  9990
2 48678  53.0553 277.2127 0001043  83.2780 276.8328 15.06391137234113
STARLINK-2648           
1 48679U 21044AT  25236.34641387  .00002345  00000+0  17636-3 0  9998
2 48679  53.0542 277.5299 0001173  73.1240 286.9877 15.06383333234107
STARLINK-2725           
1 48681U 21044AV  25236.40817020  .00000283  00000+0  37891-4 0  9992
2 48681  53.0541 247.4916 0000888  78.0325 282.0763 15.06389511234522
STARLINK-2743           
1 48682U 21044AW  25236.20636650  .00021377  00000+0  14478-2 0  9990
2 48682  53.0555 238.3157 0001538  82.8337 277.2827 15.06446519234634
STARLINK-2756           
1 48683U 21044AX  25236.22845670  .00000902  00000+0  79443-4 0  9993
2 48683  53.0543 238.0672 0001392  88.3719 271.7430 15.06401060234646
STARLINK-2741           
1 48684U 21044AY  25236.31741424  .00000341  00000+0  41753-4 0  9996
2 48684  53.0542 253.0140 0001124  75.1586 284.9527 15.06394348234443
STARLINK-2751           
1 48685U 21044AZ  25236.19897125 -.00000200  00000+0  54817-5 0  9994
2 48685  53.0542 238.2370 0001348  71.9315 288.1821 15.06393490234648
STARLINK-2629           
1 48686U 21044BA  25236.32570375  .00000560  00000+0  56453-4 0  9990
2 48686  53.0543 242.9009 0000408  75.5262 284.5773 15.06392214234580
STARLINK-2627           
1 48687U 21044BB  25236.30080211  .00002852  00000+0  21036-3 0  9998
2 48687  53.0541 232.7334 0001168  72.8938 287.2179 15.06388055234725
STARLINK-2742           
1 48688U 21044BC  25236.37082058  .00000126  00000+0  27383-4 0  9991
2 48688  53.0539 232.4178 0001137  82.5871 277.5247 15.06388503234733
STARLINK-2740           
1 48690U 21044BE  25236.31599211  .00000626  00000+0  60933-4 0  9995
2 48690  53.0540 247.6644 0001005  90.5712 269.5392 15.06403535234512
STARLINK-2750           
1 48691U 21044BF  25236.22245901 -.00000201  00000+0  53754-5 0  9994
2 48691  53.0539 243.0822 0001329  78.6239 281.4899 15.06391802234573
STARLINK-2752           
1 48692U 21044BG  25236.34042550  .00000452  00000+0  49215-4 0  9996
2 48692  53.0540 242.6791 0001069  87.6868 272.4243 15.06391946234599
STARLINK-2618           
1 48693U 21044BH  25236.41456407  .00000840  00000+0  75279-4 0  9995
2 48693  53.0539 247.2221 0001312  77.5042 282.6094 15.06387892234536
STARLINK-2748           
1 48694U 21044BJ  25236.31642372  .00000291  00000+0  38441-4 0  9993
2 48694  53.0540 252.6504 0001283  89.1639 270.9497 15.06394857234447
